ONEWEB-0161             
1 48053U 21025M   25296.63751884  .00000188  00000+0  48066-3 0  9999
2 48053  87.9038   7.2360 0001954  95.9710 264.1642 13.13470824222458
ONEWEB-0158             
1 48054U 21025N   25296.67306323 -.00000075  00000+0 -23907-3 0  9992
2 48054  87.9046   7.2103 0001745 110.5088 249.6228 13.13470053222589
ONEWEB-0157             
1 48055U 21025P   25296.46992698 -.00000195  00000+0 -56975-3 0  9990
2 48055  87.9041   7.2571 0002196  94.7447 265.3933 13.13470429222492
ONEWEB-0162             
1 48056U 21025Q   25296.67462132 -.00000108  00000+0 -33086-3 0  9991
2 48056  87.9046   7.2173 0001846  98.9146 261.2192 13.13469856222493
ONEWEB-0155             
1 48057U 21025R   25296.45298115 -.00000114  00000+0 -34594-3 0  9998
2 48057  87.9046   7.2674 0002017 102.3453 257.7902 13.13467836222600
ONEWEB-0149             
1 48058U 21025S   25296.24646546 -.00000011  00000+0 -65426-4 0  9996
2 48058  87.9041   7.3023 0001765  93.8791 266.2540 13.13471293222383
ONEWEB-0148             
1 48059U 21025T   25296.66629316  .00000148  00000+0  37017-3 0  9992
2 48059  87.9036   7.2421 0001807  80.3166 279.8168 13.13468717222566
ONEWEB-0160             
1 48060U 21025U   25296.22614352 -.00000220  00000+0 -63725-3 0  9998
2 48060  87.9040   7.3266 0001339 123.9797 236.1460 13.13470880222458
ONEWEB-0163             
1 48061U 21025V   25296.66797997  .00000102  00000+0  24508-3 0  9997
2 48061  87.9043   7.2217 0002115  97.0910 263.0459 13.13467669222636
ONEWEB-0159             
1 48062U 21025W   25296.65951606  .00000264  00000+0  68666-3 0  9998
2 48062  87.9045   7.2060 0001996  95.4049 264.7308 13.13470744222556
ONEWEB-0164             
1 48063U 21025X   25296.64089753  .00000248  00000+0  64290-3 0  9994
2 48063  87.9042   7.2180 0001805 102.8813 257.2518 13.13471603222531
ONEWEB-0167             
1 48064U 21025Y   25296.66882610  .00000057  00000+0  12169-3 0  9996
2 48064  87.9036   7.2439 0002549 106.2717 253.8692 13.13468059222524
ONEWEB-0166             
1 48065U 21025Z   25296.23460208 -.00000227  00000+0 -65545-3 0  9992
2 48065  87.9042   7.2822 0001850  94.4249 265.7092 13.13468148222547
ONEWEB-0151             
1 48066U 21025AA  25296.61719317 -.00000515  00000+0 -14457-2 0  9998
2 48066  87.9042   7.2322 0002243 103.5895 256.5484 13.13471754222538
ONEWEB-0170             
1 48067U 21025AB  25296.47329123 -.00000139  00000+0 -41544-3 0  9995
2 48067  87.9041   7.2675 0001892 115.5812 244.5513 13.13469181222474
ONEWEB-0168             
1 48068U 21025AC  25296.61041587 -.00000260  00000+0 -74590-3 0  9999
2 48068  87.9050   7.2226 0001982  96.6127 263.5228 13.13468173222503
ONEWEB-0173             
1 48069U 21025AD  25296.60195765 -.00000251  00000+0 -72094-3 0  9994
2 48069  87.9048   7.2319 0002293  98.6592 261.4797 13.13470284222748
