[{"OBJECT_NAME":"ONEWEB-0161","OBJECT_ID":"2021-025M","EPOCH":"2025-10-23T15:18:01.627776","MEAN_MOTION":13.13470824,"ECCENTRICITY":0.0001954,"INCLINATION":87.9038,"RA_OF_ASC_NODE":7.236,"ARG_OF_PERICENTER":95.971,"MEAN_ANOMALY":264.1642,"EPHEMERIS_TYPE":0,"CLASSIFICATION_TYPE":"U","NORAD_CAT_ID":48053,"ELEMENT_SET_NO":999,"REV_AT_EPOCH":22245,"BSTAR":0.00048066,"MEAN_MOTION_DOT":1.88e-6,"MEAN_MOTION_DDOT":0},{"OBJECT_NAME":"ONEWEB-0158","OBJECT_ID":"2021-025N","EPOCH":"2025-10-23T16:09:12.663072","MEAN_MOTION":13.13470053,"ECCENTRICITY":0.0001745,"INCLINATION":87.9046,"RA_OF_ASC_NODE":7.2103,"ARG_OF_PERICENTER":110.5088,"MEAN_ANOMALY":249.6228,"EPHEMERIS_TYPE":0,"CLASSIFICATION_TYPE":"U","NORAD_CAT_ID":48054,"ELEMENT_SET_NO":999,"REV_AT_EPOCH":22258,"BSTAR":-0.00023907,"MEAN_MOTION_DOT":-7.5e-7,"MEAN_MOTION_DDOT":0},{"OBJECT_NAME":"ONEWEB-0157","OBJECT_ID":"2021-025P","EPOCH":"2025-10-23T11:16:41.691072","MEAN_MOTION":13.13470429,"ECCENTRICITY":0.0002196,"INCLINATION":87.9041,"RA_OF_ASC_NODE":7.2571,"ARG_OF_PERICENTER":94.7447,"MEAN_ANOMALY":265.3933,"EPHEMERIS_TYPE":0,"CLASSIFICATION_TYPE":"U","NORAD_CAT_ID":48055,"ELEMENT_SET_NO":999,"REV_AT_EPOCH":22249,"BSTAR":-0.00056975,"MEAN_MOTION_DOT":-1.95e-6,"MEAN_MOTION_DDOT":0},{"OBJECT_NAME":"ONEWEB-0162","OBJECT_ID":"2021-025Q","EPOCH":"2025-10-23T16:11:27.282048","MEAN_MOTION":13.13469856,"ECCENTRICITY":0.0001846,"INCLINATION":87.9046,"RA_OF_ASC_NODE":7.2173,"ARG_OF_PERICENTER":98.9146,"MEAN_ANOMALY":261.2192,"EPHEMERIS_TYPE":0,"CLASSIFICATION_TYPE":"U","NORAD_CAT_ID":48056,"ELEMENT_SET_NO":999,"REV_AT_EPOCH":22249,"BSTAR":-0.00033086,"MEAN_MOTION_DOT":-1.08e-6,"MEAN_MOTION_DDOT":0},{"OBJECT_NAME":"ONEWEB-0155","OBJECT_ID":"2021-025R","EPOCH":"2025-10-23T10:52:17.571360","MEAN_MOTION":13.13467836,"ECCENTRICITY":0.0002017,"INCLINATION":87.9046,"RA_OF_ASC_NODE":7.2674,"ARG_OF_PERICENTER":102.3453,"MEAN_ANOMALY":257.7902,"EPHEMERIS_TYPE":0,"CLASSIFICATION_TYPE":"U","NORAD_CAT_ID":48057,"ELEMENT_SET_NO":999,"REV_AT_EPOCH":22260,"BSTAR":-0.00034594,"MEAN_MOTION_DOT":-1.14e-6,"MEAN_MOTION_DDOT":0},{"OBJECT_NAME":"ONEWEB-0149","OBJECT_ID":"2021-025S","EPOCH":"2025-10-23T05:54:54.615744","MEAN_MOTION":13.13471293,"ECCENTRICITY":0.0001765,"INCLINATION":87.9041,"RA_OF_ASC_NODE":7.3023,"ARG_OF_PERICENTER":93.8791,"MEAN_ANOMALY":266.254,"EPHEMERIS_TYPE":0,"CLASSIFICATION_TYPE":"U","NORAD_CAT_ID":48058,"ELEMENT_SET_NO":999,"REV_AT_EPOCH":22238,"BSTAR":-6.5426e-5,"MEAN_MOTION_DOT":-1.1e-7,"MEAN_MOTION_DDOT":0},{"OBJECT_NAME":"ONEWEB-0148","OBJECT_ID":"2021-025T","EPOCH":"2025-10-23T15:59:27.729024","MEAN_MOTION":13.13468717,"ECCENTRICITY":0.0001807,"INCLINATION":87.9036,"RA_OF_ASC_NODE":7.2421,"ARG_OF_PERICENTER":80.3166,"MEAN_ANOMALY":279.8168,"EPHEMERIS_TYPE":0,"CLASSIFICATION_TYPE":"U","NORAD_CAT_ID":48059,"ELEMENT_SET_NO":999,"REV_AT_EPOCH":22256,"BSTAR":0.00037017,"MEAN_MOTION_DOT":1.48e-6,"MEAN_MOTION_DDOT":0},{"OBJECT_NAME":"ONEWEB-0160","OBJECT_ID":"2021-025U","EPOCH":"2025-10-23T05:25:38.800128","MEAN_MOTION":13.1347088,"ECCENTRICITY":0.0001339,"INCLINATION":87.904,"RA_OF_ASC_NODE":7.3266,"ARG_OF_PERICENTER":123.9797,"MEAN_ANOMALY":236.146,"EPHEMERIS_TYPE":0,"CLASSIFICATION_TYPE":"U","NORAD_CAT_ID":48060,"ELEMENT_SET_NO":999,"REV_AT_EPOCH":22245,"BSTAR":-0.00063725,"MEAN_MOTION_DOT":-2.2e-6,"MEAN_MOTION_DDOT":0},{"OBJECT_NAME":"ONEWEB-0163","OBJECT_ID":"2021-025V","EPOCH":"2025-10-23T16:01:53.469408","MEAN_MOTION":13.13467669,"ECCENTRICITY":0.0002115,"INCLINATION":87.9043,"RA_OF_ASC_NODE":7.2217,"ARG_OF_PERICENTER":97.091,"MEAN_ANOMALY":263.0459,"EPHEMERIS_TYPE":0,"CLASSIFICATION_TYPE":"U","NORAD_CAT_ID":48061,"ELEMENT_SET_NO":999,"REV_AT_EPOCH":22263,"BSTAR":0.00024508,"MEAN_MOTION_DOT":1.02e-6,"MEAN_MOTION_DDOT":0},{"OBJECT_NAME":"ONEWEB-0159","OBJECT_ID":"2021-025W","EPOCH":"2025-10-23T15:49:42.187584","MEAN_MOTION":13.13470744,"ECCENTRICITY":0.0001996,"INCLINATION":87.9045,"RA_OF_ASC_NODE":7.206,"ARG_OF_PERICENTER":95.4049,"MEAN_ANOMALY":264.7308,"EPHEMERIS_TYPE":0,"CLASSIFICATION_TYPE":"U","NORAD_CAT_ID":48062,"ELEMENT_SET_NO":999,"REV_AT_EPOCH":22255,"BSTAR":0.00068666,"MEAN_MOTION_DOT":2.64e-6,"MEAN_MOTION_DDOT":0},{"OBJECT_NAME":"ONEWEB-0164","OBJECT_ID":"2021-025X","EPOCH":"2025-10-23T15:22:53.546592","MEAN_MOTION":13.13471603,"ECCENTRICITY":0.0001805,"INCLINATION":87.9042,"RA_OF_ASC_NODE":7.218,"ARG_OF_PERICENTER":102.8813,"MEAN_ANOMALY":257.2518,"EPHEMERIS_TYPE":0,"CLASSIFICATION_TYPE":"U","NORAD_CAT_ID":48063,"ELEMENT_SET_NO":999,"REV_AT_EPOCH":22253,"BSTAR":0.0006429,"MEAN_MOTION_DOT":2.48e-6,"MEAN_MOTION_DDOT":0},{"OBJECT_NAME":"ONEWEB-0167","OBJECT_ID":"2021-025Y","EPOCH":"2025-10-23T16:03:06.575040","MEAN_MOTION":13.13468059,"ECCENTRICITY":0.0002549,"INCLINATION":87.9036,"RA_OF_ASC_NODE":7.2439,"ARG_OF_PERICENTER":106.2717,"MEAN_ANOMALY":253.8692,"EPHEMERIS_TYPE":0,"CLASSIFICATION_TYPE":"U","NORAD_CAT_ID":48064,"ELEMENT_SET_NO":999,"REV_AT_EPOCH":22252,"BSTAR":0.00012169,"MEAN_MOTION_DOT":5.7e-7,"MEAN_MOTION_DDOT":0},{"OBJECT_NAME":"ONEWEB-0166","OBJECT_ID":"2021-025Z","EPOCH":"2025-10-23T05:37:49.619712","MEAN_MOTION":13.13468148,"ECCENTRICITY":0.000185,"INCLINATION":87.9042,"RA_OF_ASC_NODE":7.2822,"ARG_OF_PERICENTER":94.4249,"MEAN_ANOMALY":265.7092,"EPHEMERIS_TYPE":0,"CLASSIFICATION_TYPE":"U","NORAD_CAT_ID":48065,"ELEMENT_SET_NO":999,"REV_AT_EPOCH":22254,"BSTAR":-0.00065545,"MEAN_MOTION_DOT":-2.27e-6,"MEAN_MOTION_DDOT":0},{"OBJECT_NAME":"ONEWEB-0151","OBJECT_ID":"2021-025AA","EPOCH":"2025-10-23T14:48:45.489888","MEAN_MOTION":13.13471754,"ECCENTRICITY":0.0002243,"INCLINATION":87.9042,"RA_OF_ASC_NODE":7.2322,"ARG_OF_PERICENTER":103.5895,"MEAN_ANOMALY":256.5484,"EPHEMERIS_TYPE":0,"CLASSIFICATION_TYPE":"U","NORAD_CAT_ID":48066,"ELEMENT_SET_NO":999,"REV_AT_EPOCH":22253,"BSTAR":-0.0014457,"MEAN_MOTION_DOT":-5.15e-6,"MEAN_MOTION_DDOT":0},{"OBJECT_NAME":"ONEWEB-0170","OBJECT_ID":"2021-025AB","EPOCH":"2025-10-23T11:21:32.362272","MEAN_MOTION":13.13469181,"ECCENTRICITY":0.0001892,"INCLINATION":87.9041,"RA_OF_ASC_NODE":7.2675,"ARG_OF_PERICENTER":115.5812,"MEAN_ANOMALY":244.5513,"EPHEMERIS_TYPE":0,"CLASSIFICATION_TYPE":"U","NORAD_CAT_ID":48067,"ELEMENT_SET_NO":999,"REV_AT_EPOCH":22247,"BSTAR":-0.00041544,"MEAN_MOTION_DOT":-1.39e-6,"MEAN_MOTION_DDOT":0},{"OBJECT_NAME":"ONEWEB-0168","OBJECT_ID":"2021-025AC","EPOCH":"2025-10-23T14:38:59.931168","MEAN_MOTION":13.13468173,"ECCENTRICITY":0.0001982,"INCLINATION":87.905,"RA_OF_ASC_NODE":7.2226,"ARG_OF_PERICENTER":96.6127,"MEAN_ANOMALY":263.5228,"EPHEMERIS_TYPE":0,"CLASSIFICATION_TYPE":"U","NORAD_CAT_ID":48068,"ELEMENT_SET_NO":999,"REV_AT_EPOCH":22250,"BSTAR":-0.0007459,"MEAN_MOTION_DOT":-2.6e-6,"MEAN_MOTION_DDOT":0},{"OBJECT_NAME":"ONEWEB-0173","OBJECT_ID":"2021-025AD","EPOCH":"2025-10-23T14:26:49.140960","MEAN_MOTION":13.13470284,"ECCENTRICITY":0.0002293,"INCLINATION":87.9048,"RA_OF_ASC_NODE":7.2319,"ARG_OF_PERICENTER":98.6592,"MEAN_ANOMALY":261.4797,"EPHEMERIS_TYPE":0,"CLASSIFICATION_TYPE":"U","NORAD_CAT_ID":48069,"ELEMENT_SET_NO":999,"REV_AT_EPOCH":22274,"BSTAR":-0.00072094,"MEAN_MOTION_DOT":-2.51e-6,"MEAN_MOTION_DDOT":0}]
